FLOCK 4G-6              
1 62660U 25009BD  26068.71061311  .00012261  00000+0  45910-3 0  9991
2 62660  97.3980 150.7943 0002380 348.2637  11.8546 15.27432125121307
STARLINK-33821          
1 63859U 25093Z   26068.05884094  .00032066  00000+0  11695-2 0  9990
2 63859  43.0003  81.5957 0000901 277.1325  82.9424 15.27586901 47852
